STARLINK-2022           
1 47643U 21012Z   24108.48396801  .00003618  00000+0  26155-3 0  9993
2 47643  53.0527 274.5535 0001319  95.7955 264.3184 15.06417923175563
